STARLETTE               
1 07646U 75010A   22258.54953094 -.00000136  00000+0  41230-5 0  9999
2 07646  49.8237 114.5992 0205760 215.2194 143.4954 13.82313479404945
LAGEOS 1                
1 08820U 76039A   22257.65156235  .00000018  00000+0  00000+0 0  9991
2 08820 109.8518  69.5443 0045139 235.7795 129.7076  6.38664864825551
AJISAI (EGS)            
1 16908U 86061A   22258.53558858 -.00000104  00000+0 -46602-4 0  9999
2 16908  50.0108  42.0459 0011149 291.7075 174.2666 12.44497113309719
COSMOS 1989 (ETALON 1)  
1 19751U 89001C   22258.16495175 -.00000001  00000+0  00000+0 0  9998
2 19751  64.3234 119.2999 0023815 213.4198 323.0576  2.13156350262219
COSMOS 2024 (ETALON 2)  
1 20026U 89039C   22258.44151022 -.00000092  00000+0  00000+0 0  9997
2 20026  65.5290 357.3367 0018592 218.5917  94.9320  2.13204361259275
LAGEOS 2                
1 22195U 92070B   22257.97185556 -.00000009  00000+0  00000+0 0  9999
2 22195  52.6674  53.2134 0138384 307.9567 337.4346  6.47293690706642
STELLA                  
1 22824U 93061B   22258.56526383 -.00000046  00000+0  49229-6 0  9996
2 22824  98.9615 281.7479 0005391 252.0537 271.0650 14.27392983509236
LARES                   
1 38077U 12006A   22258.01388177 -.00000010  00000+0  17336-3 0  9992
2 38077  69.4913 114.3303 0011375 257.1630 102.8135 12.54931582485147
